{"type": "FeatureCollection", "features": [ {"type": "Feature", "properties": {"norad_id": 37216, "name": "COSMO-SKYMED 4", "group": "resource", "lat": 65.0567106551139, "lon": 157.8359019368386, "alt_km": 615.2658514431596, "timestamp": "2025-12-19T22:41:52.035907+00:00", "meta": {"OBJECT_NAME": "COSMO-SKYMED 4", "OBJECT_ID": "2010-060A", "EPOCH": "2025-12-19T19:09:34.053120", "MEAN_MOTION": 14.82152888, "ECCENTRICITY": 0.0001386, "INCLINATION": 97.8798, "RA_OF_ASC_NODE": 175.0147, "ARG_OF_PERICENTER": 83.4731, "MEAN_ANOMALY": 276.664, "EPHEMERIS_TYPE": 0, "CLASSIFICATION_TYPE": "U", "NORAD_CAT_ID": 37216, "ELEMENT_SET_NO": 999, "REV_AT_EPOCH": 81799, "BSTAR": 8.4422e-05, "MEAN_MOTION_DOT": 6.2e-06, "MEAN_MOTION_DDOT": 0}, "tle": {"line1": "1 37216U 10060A   25353.79831080  .00000620  00000+0  84422-4 0  9991", "line2": "2 37216  97.8798 175.0147 0001386  83.4731 276.6640 14.82152888817990"}}, "geometry": {"type": "Point", "coordinates": [157.8359019368386, 65.0567106551139]}}, {"type": "Feature", "properties": {"norad_id": 37387, "name": "RESOURCESAT-2", "group": "resource", "lat": -78.82541008719005, "lon": -174.06898398278904, "alt_km": 829.4731517142545, "timestamp": "2025-12-19T22:41:52.035917+00:00", "meta": {"OBJECT_NAME": "RESOURCESAT-2", "OBJECT_ID": "2011-015A", "EPOCH": "2025-12-19T16:23:46.644000", "MEAN_MOTION": 14.21599878, "ECCENTRICITY": 0.0006106, "INCLINATION": 98.7869, "RA_OF_ASC_NODE": 57.2036, "ARG_OF_PERICENTER": 24.011, "MEAN_ANOMALY": 336.1351, "EPHEMERIS_TYPE": 0, "CLASSIFICATION_TYPE": "U", "NORAD_CAT_ID": 37387, "ELEMENT_SET_NO": 999, "REV_AT_EPOCH": 76067, "BSTAR": 6.7659e-05, "MEAN_MOTION_DOT": 1.04e-06, "MEAN_MOTION_DDOT": 0}, "tle": {"line1": "1 37387U 11015A   25353.68317875  .00000104  00000+0  67659-4 0  9990", "line2": "2 37387  98.7869  57.2036 0006106  24.0110 336.1351 14.21599878760673"}}, "geometry": {"type": "Point", "coordinates": [-174.06898398278904, -78.82541008719005]}}, {"type": "Feature", "properties": {"norad_id": 37781, "name": "HAIYANG-2A", "group": "resource", "lat": -73.75338474223393, "lon": 29.14194607067727, "alt_km": 976.3227826562834, "timestamp": "2025-12-19T22:41:52.035928+00:00", "meta": {"OBJECT_NAME": "HAIYANG-2A", "OBJECT_ID": "2011-043A", "EPOCH": "2025-12-19T17:50:40.079616", "MEAN_MOTION": 13.78835869, "ECCENTRICITY": 0.0001635, "INCLINATION": 99.3371, "RA_OF_ASC_NODE": 354.5702, "ARG_OF_PERICENTER": 73.8656, "MEAN_ANOMALY": 286.2676, "EPHEMERIS_TYPE": 0, "CLASSIFICATION_TYPE": "U", "NORAD_CAT_ID": 37781, "ELEMENT_SET_NO": 999, "REV_AT_EPOCH": 72195, "BSTAR": 0.00011102, "MEAN_MOTION_DOT": 6.9e-07, "MEAN_MOTION_DDOT": 0}, "tle": {"line1": "1 37781U 11043A   25353.74351944  .00000069  00000+0  11102-3 0  9992", "line2": "2 37781  99.3371 354.5702 0001635  73.8656 286.2676 13.78835869721955"}}, "geometry": {"type": "Point", "coordinates": [29.14194607067727, -73.75338474223393]}}, {"type": "Feature", "properties": {"norad_id": 37791, "name": "RASAT", "group": "resource", "lat": -7.301263654947663, "lon": -97.94417089227592, "alt_km": 683.9278554996927, "timestamp": "2025-12-19T22:41:52.035938+00:00", "meta": {"OBJECT_NAME": "RASAT", "OBJECT_ID": "2011-044D", "EPOCH": "2025-12-19T19:00:49.794336", "MEAN_MOTION": 14.67920072, "ECCENTRICITY": 0.0021606, "INCLINATION": 98.0651, "RA_OF_ASC_NODE": 82.9456, "ARG_OF_PERICENTER": 43.7074, "MEAN_ANOMALY": 52.7242, "EPHEMERIS_TYPE": 0, "CLASSIFICATION_TYPE": "U", "NORAD_CAT_ID": 37791, "ELEMENT_SET_NO": 999, "REV_AT_EPOCH": 76686, "BSTAR": 0.00014246, "MEAN_MOTION_DOT": 7.69e-06, "MEAN_MOTION_DDOT": 0}, "tle": {"line1": "1 37791U 11044D   25353.79224299  .00000769  00000+0  14246-3 0  9990", "line2": "2 37791  98.0651  82.9456 0021606  43.7074  52.7242 14.67920072766865"}}, "geometry": {"type": "Point", "coordinates": [-97.94417089227592, -7.301263654947663]}}, {"type": "Feature", "properties": {"norad_id": 37841, "name": "SRMSAT", "group": "resource", "lat": 15.30086830829827, "lon": 113.2149688068573, "alt_km": 841.4820468574444, "timestamp": "2025-12-19T22:41:52.035949+00:00", "meta": {"OBJECT_NAME": "SRMSAT", "OBJECT_ID": "2011-058D", "EPOCH": "2025-12-19T14:40:57.595008", "MEAN_MOTION": 14.11513672, "ECCENTRICITY": 0.0011928, "INCLINATION": 19.9723, "RA_OF_ASC_NODE": 66.3596, "ARG_OF_PERICENTER": 29.0252, "MEAN_ANOMALY": 120.8933, "EPHEMERIS_TYPE": 0, "CLASSIFICATION_TYPE": "U", "NORAD_CAT_ID": 37841, "ELEMENT_SET_NO": 999, "REV_AT_EPOCH": 73241, "BSTAR": 6.4258e-05, "MEAN_MOTION_DOT": 3.83e-06, "MEAN_MOTION_DDOT": 0}, "tle": {"line1": "1 37841U 11058D   25353.61177772  .00000383  00000+0  64258-4 0  9996", "line2": "2 37841  19.9723  66.3596 0011928  29.0252 120.8933 14.11513672732416"}}, "geometry": {"type": "Point", "coordinates": [113.2149688068573, 15.30086830829827]}}, {"type": "Feature", "properties": {"norad_id": 38012, "name": "PLEIADES 1A", "group": "resource", "lat": 77.01021199251808, "lon": -74.8076068237418, "alt_km": 689.7994313302206, "timestamp": "2025-12-19T22:41:52.035959+00:00", "meta": {"OBJECT_NAME": "PLEIADES 1A", "OBJECT_ID": "2011-076F", "EPOCH": "2025-12-19T18:01:08.415840", "MEAN_MOTION": 14.58568105, "ECCENTRICITY": 0.0001178, "INCLINATION": 98.1823, "RA_OF_ASC_NODE": 66.4116, "ARG_OF_PERICENTER": 73.9496, "MEAN_ANOMALY": 83.1026, "EPHEMERIS_TYPE": 0, "CLASSIFICATION_TYPE": "U", "NORAD_CAT_ID": 38012, "ELEMENT_SET_NO": 999, "REV_AT_EPOCH": 74583, "BSTAR": 0.00010988, "MEAN_MOTION_DOT": 4.65e-06, "MEAN_MOTION_DDOT": 0}, "tle": {"line1": "1 38012U 11076F   25353.75079185  .00000465  00000+0  10988-3 0  9992", "line2": "2 38012  98.1823  66.4116 0001178  73.9496  83.1026 14.58568105745836"}}, "geometry": {"type": "Point", "coordinates": [-74.8076068237418, 77.01021199251808]}}, {"type": "Feature", "properties": {"norad_id": 38038, "name": "ZIYUAN 1-02C (ZY 1-02C)", "group": "resource", "lat": -15.723316084763296, "lon": -122.56671345359892, "alt_km": 768.5641407440498, "timestamp": "2025-12-19T22:41:52.035969+00:00", "meta": {"OBJECT_NAME": "ZIYUAN 1-02C (ZY 1-02C)", "OBJECT_ID": "2011-079A", "EPOCH": "2025-12-19T19:05:56.378688", "MEAN_MOTION": 14.3801954, "ECCENTRICITY": 0.0007414, "INCLINATION": 98.4331, "RA_OF_ASC_NODE": 59.6798, "ARG_OF_PERICENTER": 119.6654, "MEAN_ANOMALY": 20.2125, "EPHEMERIS_TYPE": 0, "CLASSIFICATION_TYPE": "U", "NORAD_CAT_ID": 38038, "ELEMENT_SET_NO": 999, "REV_AT_EPOCH": 73342, "BSTAR": 0.00013574, "MEAN_MOTION_DOT": 3.68e-06, "MEAN_MOTION_DDOT": 0}, "tle": {"line1": "1 38038U 11079A   25353.79579142  .00000368  00000+0  13574-3 0  9991", "line2": "2 38038  98.4331  59.6798 0007414 119.6654  20.2125 14.38019540733420"}}, "geometry": {"type": "Point", "coordinates": [-122.56671345359892, -15.723316084763296]}}, {"type": "Feature", "properties": {"norad_id": 38338, "name": "ARIRANG-3 (KOMPSAT-3)", "group": "resource", "lat": 76.46505847161976, "lon": -88.91918135639774, "alt_km": 682.4118138168033, "timestamp": "2025-12-19T22:41:52.035979+00:00", "meta": {"OBJECT_NAME": "ARIRANG-3 (KOMPSAT-3)", "OBJECT_ID": "2012-025B", "EPOCH": "2025-12-19T19:03:02.279232", "MEAN_MOTION": 14.61721307, "ECCENTRICITY": 0.0004932, "INCLINATION": 98.3332, "RA_OF_ASC_NODE": 308.4366, "ARG_OF_PERICENTER": 314.3041, "MEAN_ANOMALY": 45.7755, "EPHEMERIS_TYPE": 0, "CLASSIFICATION_TYPE": "U", "NORAD_CAT_ID": 38338, "ELEMENT_SET_NO": 999, "REV_AT_EPOCH": 72513, "BSTAR": 8.7892e-05, "MEAN_MOTION_DOT": 3.89e-06, "MEAN_MOTION_DDOT": 0}, "tle": {"line1": "1 38338U 12025B   25353.79377638  .00000389  00000+0  87892-4 0  9990", "line2": "2 38338  98.3332 308.4366 0004932 314.3041  45.7755 14.61721307725132"}}, "geometry": {"type": "Point", "coordinates": [-88.91918135639774, 76.46505847161976]}}, {"type": "Feature", "properties": {"norad_id": 38709, "name": "EXACTVIEW-1 (ADS-1B)", "group": "resource", "lat": -23.59615619486386, "lon": -81.46656016627801, "alt_km": 818.9005980139646, "timestamp": "2025-12-19T22:41:52.035989+00:00", "meta": {"OBJECT_NAME": "EXACTVIEW-1 (ADS-1B)", "OBJECT_ID": "2012-039C", "EPOCH": "2025-12-19T06:34:34.635072", "MEAN_MOTION": 14.24910488, "ECCENTRICITY": 0.0010338, "INCLINATION": 98.9638, "RA_OF_ASC_NODE": 101.8012, "ARG_OF_PERICENTER": 334.9028, "MEAN_ANOMALY": 25.1646, "EPHEMERIS_TYPE": 0, "CLASSIFICATION_TYPE": "U", "NORAD_CAT_ID": 38709, "ELEMENT_SET_NO": 999, "REV_AT_EPOCH": 69708, "BSTAR": 6.0813e-05, "MEAN_MOTION_DOT": 9.6e-07, "MEAN_MOTION_DDOT": 0}, "tle": {"line1": "1 38709U 12039C   25353.27401198  .00000096  00000+0  60813-4 0  9998", "line2": "2 38709  98.9638 101.8012 0010338 334.9028  25.1646 14.24910488697084"}}, "geometry": {"type": "Point", "coordinates": [-81.46656016627801, -23.59615619486386]}}, {"type": "Feature", "properties": {"norad_id": 38755, "name": "SPOT 6", "group": "resource", "lat": 23.580486035038504, "lon": 55.00853102349916, "alt_km": 696.8345214065293, "timestamp": "2025-12-19T22:41:52.035999+00:00", "meta": {"OBJECT_NAME": "SPOT 6", "OBJECT_ID": "2012-047A", "EPOCH": "2025-12-19T17:38:58.102944", "MEAN_MOTION": 14.585386, "ECCENTRICITY": 0.000132, "INCLINATION": 98.1571, "RA_OF_ASC_NODE": 58.3915, "ARG_OF_PERICENTER": 78.0698, "MEAN_ANOMALY": 282.0649, "EPHEMERIS_TYPE": 0, "CLASSIFICATION_TYPE": "U", "NORAD_CAT_ID": 38755, "ELEMENT_SET_NO": 999, "REV_AT_EPOCH": 70689, "BSTAR": 9.3423e-05, "MEAN_MOTION_DOT": 3.89e-06, "MEAN_MOTION_DDOT": 0}, "tle": {"line1": "1 38755U 12047A   25353.73539471  .00000389  00000+0  93423-4 0  9993", "line2": "2 38755  98.1571  58.3915 0001320  78.0698 282.0649 14.58538600706897"}}, "geometry": {"type": "Point", "coordinates": [55.00853102349916, 23.580486035038504]}}]}